[
    {
        "Altitude(m)": 562976.3089482668,
        "Argument of Periapsis(deg)": 0.013245982221427002,
        "Eccentricity": 0.0,
        "Inclination(deg)": 53.0,
        "Latitude(deg)": -31.231714708961963,
        "Longitude(deg)": 95.45237909069341,
        "Mean Anomaly(deg)": -139.81681426484488,
        "RAAN(deg)": 349.9802867370561,
        "Satellite Name": "Starlink Shell 1 1552",
        "Satellite Number": 1552,
        "Semi-Major Axis(m)": 6931778.249405717,
        "Time(s)": 380
    },
    {
        "Altitude(m)": 563151.616746646,
        "Argument of Periapsis(deg)": 0.013594560700938237,
        "Eccentricity": 0.0,
        "Inclination(deg)": 53.0,
        "Latitude(deg)": -31.67751753590078,
        "Longitude(deg)": 95.92669701497722,
        "Mean Anomaly(deg)": -139.1899830612881,
        "RAAN(deg)": 349.9797679669786,
        "Satellite Name": "Starlink Shell 1 1552",
        "Satellite Number": 1552,
        "Semi-Major Axis(m)": 6931778.249405717,
        "Time(s)": 390
    },
    {
        "Altitude(m)": 563326.8409549544,
        "Argument of Periapsis(deg)": 0.013943139180449475,
        "Eccentricity": 0.0,
        "Inclination(deg)": 53.0,
        "Latitude(deg)": -32.121173023496155,
        "Longitude(deg)": 96.40593393218965,
        "Mean Anomaly(deg)": -138.56315185773144,
        "RAAN(deg)": 349.9792491969011,
        "Satellite Name": "Starlink Shell 1 1552",
        "Satellite Number": 1552,
        "Semi-Major Axis(m)": 6931778.249405717,
        "Time(s)": 400
    },
    {
        "Altitude(m)": 563501.9153257129,
        "Argument of Periapsis(deg)": 0.014291717659960712,
        "Eccentricity": 0.0,
        "Inclination(deg)": 53.0,
        "Latitude(deg)": -32.562624494985236,
        "Longitude(deg)": 96.89019966946543,
        "Mean Anomaly(deg)": -137.9363206541747,
        "RAAN(deg)": 349.97873042682363,
        "Satellite Name": "Starlink Shell 1 1552",
        "Satellite Number": 1552,
        "Semi-Major Axis(m)": 6931778.249405717,
        "Time(s)": 410
    },
    {
        "Altitude(m)": 563676.7735321723,
        "Argument of Periapsis(deg)": 0.014640296139471948,
        "Eccentricity": 0.0,
        "Inclination(deg)": 53.0,
        "Latitude(deg)": -33.00181397295468,
        "Longitude(deg)": 97.37960469943597,
        "Mean Anomaly(deg)": -137.309489450618,
        "RAAN(deg)": 349.97821165674617,
        "Satellite Name": "Starlink Shell 1 1552",
        "Satellite Number": 1552,
        "Semi-Major Axis(m)": 6931778.249405717,
        "Time(s)": 420
    },
    {
        "Altitude(m)": 563851.3491980131,
        "Argument of Periapsis(deg)": 0.014988874618983185,
        "Eccentricity": 0.0,
        "Inclination(deg)": 53.0,
        "Latitude(deg)": -33.438682146946554,
        "Longitude(deg)": 97.87426060395289,
        "Mean Anomaly(deg)": -136.68265824706125,
        "RAAN(deg)": 349.9776928866687,
        "Satellite Name": "Starlink Shell 1 1552",
        "Satellite Number": 1552,
        "Semi-Major Axis(m)": 6931778.249405717,
        "Time(s)": 430
    },
    {
        "Altitude(m)": 564025.5759270486,
        "Argument of Periapsis(deg)": 0.015337453098494424,
        "Eccentricity": 0.0,
        "Inclination(deg)": 53.0,
        "Latitude(deg)": -33.873168341028176,
        "Longitude(deg)": 98.37428053167511,
        "Mean Anomaly(deg)": -136.0558270435045,
        "RAAN(deg)": 349.97717411659124,
        "Satellite Name": "Starlink Shell 1 1552",
        "Satellite Number": 1552,
        "Semi-Major Axis(m)": 6931778.249405717,
        "Time(s)": 440
    },
    {
        "Altitude(m)": 564199.387332935,
        "Argument of Periapsis(deg)": 0.01568603157800566,
        "Eccentricity": 0.0,
        "Inclination(deg)": 53.0,
        "Latitude(deg)": -34.305210481402426,
        "Longitude(deg)": 98.87977813622187,
        "Mean Anomaly(deg)": -135.42899583994785,
        "RAAN(deg)": 349.9766553465137,
        "Satellite Name": "Starlink Shell 1 1552",
        "Satellite Number": 1552,
        "Semi-Major Axis(m)": 6931778.249405717,
        "Time(s)": 450
    },
    {
        "Altitude(m)": 564372.7170688355,
        "Argument of Periapsis(deg)": 0.0160346100575169,
        "Eccentricity": 0.0,
        "Inclination(deg)": 53.0,
        "Latitude(deg)": -34.73474506414133,
        "Longitude(deg)": 99.39086802018289,
        "Mean Anomaly(deg)": -134.80216463639107,
        "RAAN(deg)": 349.97613657643626,
        "Satellite Name": "Starlink Shell 1 1552",
        "Satellite Number": 1552,
        "Semi-Major Axis(m)": 6931778.249405717,
        "Time(s)": 460
    },
    {
        "Altitude(m)": 564545.4988571039,
        "Argument of Periapsis(deg)": 0.016383188537028134,
        "Eccentricity": 0.0,
        "Inclination(deg)": 53.0,
        "Latitude(deg)": -35.16170712313442,
        "Longitude(deg)": 99.9076661716436,
        "Mean Anomaly(deg)": -134.17533343283444,
        "RAAN(deg)": 349.9756178063588,
        "Satellite Name": "Starlink Shell 1 1552",
        "Satellite Number": 1552,
        "Semi-Major Axis(m)": 6931778.249405717,
        "Time(s)": 470
    },
    {
        "Altitude(m)": 564717.6665188761,
        "Argument of Periapsis(deg)": 0.01673176701653937,
        "Eccentricity": 0.0,
        "Inclination(deg)": 53.0,
        "Latitude(deg)": -35.58603019835317,
        "Longitude(deg)": 100.4302888798676,
        "Mean Anomaly(deg)": -133.54850222927766,
        "RAAN(deg)": 349.97509903628134,
        "Satellite Name": "Starlink Shell 1 1552",
        "Satellite Number": 1552,
        "Semi-Major Axis(m)": 6931778.249405717,
        "Time(s)": 480
    },
    {
        "Altitude(m)": 564889.1540036213,
        "Argument of Periapsis(deg)": 0.017080345496050607,
        "Eccentricity": 0.0,
        "Inclination(deg)": 53.0,
        "Latitude(deg)": -36.00764630454075,
        "Longitude(deg)": 100.95885315536934,
        "Mean Anomaly(deg)": -132.92167102572097,
        "RAAN(deg)": 349.9745802662038,
        "Satellite Name": "Starlink Shell 1 1552",
        "Satellite Number": 1552,
        "Semi-Major Axis(m)": 6931778.249405717,
        "Time(s)": 490
    },
    {
        "Altitude(m)": 565059.895418637,
        "Argument of Periapsis(deg)": 0.017428923975561842,
        "Eccentricity": 0.0,
        "Inclination(deg)": 53.0,
        "Latitude(deg)": -36.42648590044902,
        "Longitude(deg)": 101.49347714098184,
        "Mean Anomaly(deg)": -132.29483982216428,
        "RAAN(deg)": 349.97406149612635,
        "Satellite Name": "Starlink Shell 1 1552",
        "Satellite Number": 1552,
        "Semi-Major Axis(m)": 6931778.249405717,
        "Time(s)": 500
    },
    {
        "Altitude(m)": 565229.8250584231,
        "Argument of Periapsis(deg)": 0.01777750245507308,
        "Eccentricity": 0.0,
        "Inclination(deg)": 53.0,
        "Latitude(deg)": -36.84247785875249,
        "Longitude(deg)": 102.03427900050482,
        "Mean Anomaly(deg)": -131.66800861860762,
        "RAAN(deg)": 349.97354272604895,
        "Satellite Name": "Starlink Shell 1 1552",
        "Satellite Number": 1552,
        "Semi-Major Axis(m)": 6931778.249405717,
        "Time(s)": 510
    },
    {
        "Altitude(m)": 565398.877434,
        "Argument of Periapsis(deg)": 0.018126080934584315,
        "Eccentricity": 0.0,
        "Inclination(deg)": 53.0,
        "Latitude(deg)": -37.255549436782935,
        "Longitude(deg)": 102.58137731011979,
        "Mean Anomaly(deg)": -131.04117741505078,
        "RAAN(deg)": 349.9730239559714,
        "Satellite Name": "Starlink Shell 1 1552",
        "Satellite Number": 1552,
        "Semi-Major Axis(m)": 6931778.249405717,
        "Time(s)": 520
    },
    {
        "Altitude(m)": 565566.9873020691,
        "Argument of Periapsis(deg)": 0.018474659414095554,
        "Eccentricity": 0.0,
        "Inclination(deg)": 53.0,
        "Latitude(deg)": -37.665626248238034,
        "Longitude(deg)": 103.134891439127,
        "Mean Anomaly(deg)": -130.4143462114941,
        "RAAN(deg)": 349.97250518589397,
        "Satellite Name": "Starlink Shell 1 1552",
        "Satellite Number": 1552,
        "Semi-Major Axis(m)": 6931778.249405717,
        "Time(s)": 530
    },
    {
        "Altitude(m)": 565734.0896940798,
        "Argument of Periapsis(deg)": 0.018823237893606792,
        "Eccentricity": 0.0,
        "Inclination(deg)": 53.0,
        "Latitude(deg)": -38.072632236031986,
        "Longitude(deg)": 103.69494040655377,
        "Mean Anomaly(deg)": -129.7875150079374,
        "RAAN(deg)": 349.97198641581645,
        "Satellite Name": "Starlink Shell 1 1552",
        "Satellite Number": 1552,
        "Semi-Major Axis(m)": 6931778.249405717,
        "Time(s)": 540
    },
    {
        "Altitude(m)": 565900.1199451532,
        "Argument of Periapsis(deg)": 0.019171816373118027,
        "Eccentricity": 0.0,
        "Inclination(deg)": 53.0,
        "Latitude(deg)": -38.47648964646731,
        "Longitude(deg)": 104.26164323878277,
        "Mean Anomaly(deg)": -129.16068380438074,
        "RAAN(deg)": 349.971467645739,
        "Satellite Name": "Starlink Shell 1 1552",
        "Satellite Number": 1552,
        "Semi-Major Axis(m)": 6931778.249405717,
        "Time(s)": 550
    },
    {
        "Altitude(m)": 566065.0137228394,
        "Argument of Periapsis(deg)": 0.019520394852629266,
        "Eccentricity": 0.0,
        "Inclination(deg)": 53.0,
        "Latitude(deg)": -38.87711900492162,
        "Longitude(deg)": 104.83511931473132,
        "Mean Anomaly(deg)": -128.53385260082393,
        "RAAN(deg)": 349.9709488756616,
        "Satellite Name": "Starlink Shell 1 1552",
        "Satellite Number": 1552,
        "Semi-Major Axis(m)": 6931778.249405717,
        "Time(s)": 560
    }
]